{
    "links": {
        "self": "http://www.neowsapp.com/rest/v1/neo/3267067?api_key=iIulBulltgU6a56xZRHN4H3l9WmuAYTsLGpBGhQ2"
    },
    "id": "3267067",
    "neo_reference_id": "3267067",
    "name": "(2005 CM)",
    "designation": "2005 CM",
    "nasa_jpl_url": "http://ssd.jpl.nasa.gov/sbdb.cgi?sstr=3267067",
    "absolute_magnitude_h": 23.7,
    "estimated_diameter": {
        "kilometers": {
            "estimated_diameter_min": 0.0483676488,
            "estimated_diameter_max": 0.1081533507
        },
        "meters": {
            "estimated_diameter_min": 48.3676488219,
            "estimated_diameter_max": 108.1533506775
        },
        "miles": {
            "estimated_diameter_min": 0.0300542543,
            "estimated_diameter_max": 0.0672033557
        },
        "feet": {
            "estimated_diameter_min": 158.6865169607,
            "estimated_diameter_max": 354.8338390368
        }
    },
    "is_potentially_hazardous_asteroid": false,
    "close_approach_data": [
        {
            "close_approach_date": "2005-01-15",
            "close_approach_date_full": "2005-Jan-15 16:19",
            "epoch_date_close_approach": 1105805940000,
            "relative_velocity": {
                "kilometers_per_second": "6.9558225845",
                "kilometers_per_hour": "25040.9613042585",
                "miles_per_hour": "15559.4795393044"
            },
            "miss_distance": {
                "astronomical": "0.0629588506",
                "lunar": "24.4909928834",
                "kilometers": "9418509.947408222",
                "miles": "5852390.7023565836"
            },
            "orbiting_body": "Earth"
        }
    ],
    "orbital_data": {
        "orbit_id": "10",
        "orbit_determination_date": "2017-04-06 09:11:30",
        "first_observation_date": "2005-02-02",
        "last_observation_date": "2005-02-06",
        "data_arc_in_days": 4,
        "observations_used": 39,
        "orbit_uncertainty": "8",
        "minimum_orbit_intersection": ".0465933",
        "jupiter_tisserand_invariant": "3.394",
        "epoch_osculation": "2453405.5",
        "eccentricity": ".5474256595655526",
        "semi_major_axis": "2.275115584374664",
        "inclination": ".796765237599213",
        "ascending_node_longitude": "295.6563213107693",
        "orbital_period": "1253.440216480934",
        "perihelion_distance": "1.029658935010496",
        "perihelion_argument": "166.2464560017185",
        "aphelion_distance": "3.520572233738832",
        "perihelion_time": "2453376.076829233986",
        "mean_anomaly": "8.450615622900083",
        "mean_motion": ".2872095495792447",
        "equinox": "J2000",
        "orbit_class": {
            "orbit_class_type": "AMO",
            "orbit_class_description": "Near-Earth asteroid orbits similar to that of 1221 Amor",
            "orbit_class_range": "1.017 AU < q (perihelion) < 1.3 AU"
        }
    },
    "is_sentry_object": false
}